norad_id,name,regime,epoch,line1,line2,inclination,eccentricity,mean_motion,raan,arg_pericenter,mean_anomaly
26566,COSMOS 2374 (GLONASS),NSO,14316.74743888,1 26566U 00063C   14316.74743888  .00000041  00000-0  00000+0 0  3019\,2 26566 064.7678 097.1159 0063089 216.0815 106.9484 02.13100159109572,64.7678,0.0063089,2.13100159,97.1159,216.0815,106.9484
26566,COSMOS 2374 (GLONASS),NSO,14320.50158355,1 26566U 00063C   14320.50158355  .00000042  00000-0  00000+0 0  3029\,2 26566 064.7688 096.9877 0063155 216.0941 106.9635 02.13100020109655,64.7688,0.0063155,2.1310002,96.9877,216.0941,106.9635
26566,COSMOS 2374 (GLONASS),NSO,14322.88314953,1 26566U 00063C   14322.88314953  .00000031  00000-0  00000+0 0  3039\,2 26566 064.7696 096.9062 0063178 216.1371 133.9599 02.13099964109713,64.7696,0.0063178,2.13099964,96.9062,216.1371,133.9599
26566,COSMOS 2374 (GLONASS),NSO,14325.27534390,1 26566U 00063C   14325.27534390  .00000026  00000-0  00000+0 0  3049\,2 26566 064.7702 096.8244 0063166 216.1375 169.1514 02.13099950109761,64.7702,0.0063166,2.1309995,96.8244,216.1375,169.1514
26566,COSMOS 2374 (GLONASS),NSO,14327.57397939,1 26566U 00063C   14327.57397939  .00000031  00000-0  00000+0 0  3057\,2 26566 064.7709 096.7457 0063187 216.2014 132.5037 02.13099963109811,64.7709,0.0063187,2.13099963,96.7457,216.2014,132.5037
26566,COSMOS 2374 (GLONASS),NSO,14329.93642150,1 26566U 00063C   14329.93642150  .00000042  00000-0  00000+0 0  3060\,2 26566 064.7716 096.6649 0063136 216.1876 144.8830 02.13100029109868,64.7716,0.0063136,2.13100029,96.6649,216.1876,144.883
26566,COSMOS 2374 (GLONASS),NSO,14332.31542916,1 26566U 00063C   14332.31542916  .00000041  00000-0  00000+0 0  3075\,2 26566 064.7723 096.5836 0063142 216.2526 169.8911 02.13100114109911,64.7723,0.0063142,2.13100114,96.5836,216.2526,169.8911
26566,COSMOS 2374 (GLONASS),NSO,14336.00152569,1 26566U 00063C   14336.00152569 -.00000004  00000-0  00000+0 0  3087\,2 26566 064.7733 096.4577 0063135 216.2592 117.7029 02.13100221109997,64.7733,0.0063135,2.13100221,96.4577,216.2592,117.7029
26566,COSMOS 2374 (GLONASS),NSO,14338.39261365,1 26566U 00063C   14338.39261365 -.00000028  00000-0  00000+0 0  3093\,2 26566 064.7742 096.3761 0063215 216.4038 151.9010 02.13100229110043,64.7742,0.0063215,2.13100229,96.3761,216.4038,151.901
26566,COSMOS 2374 (GLONASS),NSO,14340.74901581,1 26566U 00063C   14340.74901581 -.00000024  00000-0  00000+0 0  3104\,2 26566 064.7749 096.2957 0063236 216.3661 159.6742 02.13100225110098,64.7749,0.0063236,2.13100225,96.2957,216.3661,159.6742
26566,COSMOS 2374 (GLONASS),NSO,14343.58897208,1 26566U 00063C   14343.58897208 -.00000000  00000-0  00000+0 0  3114\,2 26566 064.7758 096.1989 0063291 216.3868 178.3528 02.13100142110157,64.7758,0.0063291,2.13100142,96.1989,216.3868,178.3528
26566,COSMOS 2374 (GLONASS),NSO,14346.44423084,1 26566U 00063C   14346.44423084  .00000008  00000-0  00000+0 0  3127\,2 26566 064.7765 096.1013 0063320 216.3855 208.7928 02.13100054110213,64.7765,0.006332,2.13100054,96.1013,216.3855,208.7928
26566,COSMOS 2374 (GLONASS),NSO,14348.72662885,1 26566U 00063C   14348.72662885 -.00000000  00000-0  00000+0 0  3138\,2 26566 064.7772 096.0233 0063344 216.4376 159.7026 02.13100000110269,64.7772,0.0063344,2.131,96.0233,216.4376,159.7026
26566,COSMOS 2374 (GLONASS),NSO,14351.56156483,1 26566U 00063C   14351.56156483 -.00000010  00000-0  00000+0 0  3148\,2 26566 064.7780 095.9262 0063363 216.4928 174.4931 02.13099941110329,64.778,0.0063363,2.13099941,95.9262,216.4928,174.4931
26566,COSMOS 2374 (GLONASS),NSO,14353.88887406,1 26566U 00063C   14353.88887406 -.00000008  00000-0  00000+0 0  3159\,2 26566 064.7787 095.8465 0063352 216.5338 159.8661 02.13099939110373,64.7787,0.0063352,2.13099939,95.8465,216.5338,159.8661
26566,COSMOS 2374 (GLONASS),NSO,14356.23372164,1 26566U 00063C   14356.23372164  .00000004  00000-0  00000+0 0  3167\,2 26566 064.7793 095.7662 0063340 216.5814 158.6858 02.13099986110427,64.7793,0.006334,2.13099986,95.7662,216.5814,158.6858
26566,COSMOS 2374 (GLONASS),NSO,14358.62507988,1 26566U 00063C   14358.62507988  .00000012  00000-0  00000+0 0  3176\,2 26566 064.7800 095.6843 0063317 216.5745 193.2415 02.13100064110472,64.78,0.0063317,2.13100064,95.6843,216.5745,193.2415
26566,COSMOS 2374 (GLONASS),NSO,14361.48142881,1 26566U 00063C   14361.48142881 -.00000007  00000-0  00000+0 0  3187\,2 26566 064.7809 095.5866 0063332 216.7133 224.3718 02.13100145110534,64.7809,0.0063332,2.13100145,95.5866,216.7133,224.3718
26566,COSMOS 2374 (GLONASS),NSO,14363.69321433,1 26566U 00063C   14363.69321433 -.00000036  00000-0  00000+0 0  3197\,2 26566 064.7816 095.5111 0063332 216.7353 121.1384 02.13100220110581,64.7816,0.0063332,2.1310022,95.5111,216.7353,121.1384
26566,COSMOS 2374 (GLONASS),NSO,15001.53798402,1 26566U 00063C   15001.53798402 -.00000054  00000-0  00000+0 0  3206\,2 26566 064.7825 095.4140 0063372 216.7528 143.5105 02.13100246110644,64.7825,0.0063372,2.13100246,95.414,216.7528,143.5105
26566,COSMOS 2374 (GLONASS),NSO,15003.85106272,1 26566U 00063C   15003.85106272 -.00000040  00000-0  00000+0 0  3217\,2 26566 064.7832 095.3350 0063403 216.7329 118.0302 02.13100228110699,64.7832,0.0063403,2.13100228,95.335,216.7329,118.0302
26566,COSMOS 2374 (GLONASS),NSO,15007.16828927,1 26566U 00063C   15007.16828927 -.00000120  00000-0  10000-3 0  3239\,2 26566 064.7846 095.2213 0063294 216.6502 142.9601 02.13099305110771,64.7846,0.0063294,2.13099305,95.2213,216.6502,142.9601
26566,COSMOS 2374 (GLONASS),NSO,15007.22997884,1 26566U 00063C   15007.22997884 -.00000012  00000-0  00000+0 0  3241\,2 26566 064.7842 095.2195 0063469 216.7898 190.1402 02.13100139110760,64.7842,0.0063469,2.13100139,95.2195,216.7898,190.1402
26566,COSMOS 2374 (GLONASS),NSO,15009.67551147,1 26566U 00063C   15009.67551147 -.00000011  00000-0  00000+0 0  3250\,2 26566 064.7849 095.1359 0063503 216.8005 266.2425 02.13100066110813,64.7849,0.0063503,2.13100066,95.1359,216.8005,266.2425
26566,COSMOS 2374 (GLONASS),NSO,15013.35703850,1 26566U 00063C   15013.35703850 -.00000021  00000-0  00000+0 0  3262\,2 26566 064.7861 095.0096 0063511 216.8614 210.4976 02.13099992110894,64.7861,0.0063511,2.13099992,95.0096,216.8614,210.4976
26566,COSMOS 2374 (GLONASS),NSO,15016.10034926,1 26566U 00063C   15016.10034926 -.00000015  00000-0  00000+0 0  3273\,2 26566 064.7870 094.9155 0063495 216.8492 155.0636 02.13099979110952,64.787,0.0063495,2.13099979,94.9155,216.8492,155.0636
26566,COSMOS 2374 (GLONASS),NSO,15018.57302848,1 26566U 00063C   15018.57302848  .00000001  00000-0  00000+0 0  3282\,2 26566 064.7878 094.8307 0063484 216.9469 251.9006 02.13099998111006,64.7878,0.0063484,2.13099998,94.8307,216.9469,251.9006
26566,COSMOS 2374 (GLONASS),NSO,15020.67224730,1 26566U 00063C   15020.67224730  .00000012  00000-0  00000+0 0  3292\,2 26566 064.7885 094.7587 0063461 217.0160 062.2627 02.13100060111047,64.7885,0.0063461,2.1310006,94.7587,217.016,62.2627
26566,COSMOS 2374 (GLONASS),NSO,15023.21659458,1 26566U 00063C   15023.21659458  .00000003  00000-0  00000+0 0  3306\,2 26566 064.7894 094.6716 0063444 217.0865 214.1073 02.13100155111108,64.7894,0.0063444,2.13100155,94.6716,217.0865,214.1073
26566,COSMOS 2374 (GLONASS),NSO,15026.52102218,1 26566U 00063C   15026.52102218 -.00000035  00000-0  00000+0 0  3317\,2 26566 064.7906 094.5588 0063439 217.0864 229.1253 02.13100254111174,64.7906,0.0063439,2.13100254,94.5588,217.0864,229.1253
26566,COSMOS 2374 (GLONASS),NSO,15029.30732704,1 26566U 00063C   15029.30732704 -.00000041  00000-0  00000+0 0  3323\,2 26566 064.7916 094.4637 0063467 217.1123 206.6372 02.13100277111233,64.7916,0.0063467,2.13100277,94.4637,217.1123,206.6372
26566,COSMOS 2374 (GLONASS),NSO,15033.53756370,1 26566U 00063C   15033.53756370 -.00000002  00000-0  00000+0 0  3336\,2 26566 064.7931 094.3192 0063528 217.1243 211.8905 02.13100210111323,64.7931,0.0063528,2.1310021,94.3192,217.1243,211.8905
26566,COSMOS 2374 (GLONASS),NSO,15035.79530462,1 26566U 00063C   15035.79530462  .00000008  00000-0  00000+0 0  3344\,2 26566 064.7939 094.2420 0063555 217.1428 143.9193 02.13100138111377,64.7939,0.0063555,2.13100138,94.242,217.1428,143.9193
26566,COSMOS 2374 (GLONASS),NSO,15038.25375919,1 26566U 00063C   15038.25375919  .00000004  00000-0  00000+0 0  3359\,2 26566 064.7947 094.1578 0063574 217.1983 229.8894 02.13100082111422,64.7947,0.0063574,2.13100082,94.1578,217.1983,229.8894
26566,COSMOS 2374 (GLONASS),NSO,15043.42515791,1 26566U 00063C   15043.42515791  .00000011  00000-0  00000+0 0  3367\,2 26566 064.7969 093.9804 0063548 217.2995 237.0715 02.13100000111535,64.7969,0.0063548,2.131,93.9804,217.2995,237.0715
26566,COSMOS 2374 (GLONASS),NSO,15047.64123221,1 26566U 00063C   15047.64123221  .00000041  00000-0  00000+0 0  3372\,2 26566 064.7986 093.8356 0063504 217.3199 231.4450 02.13100099111626,64.7986,0.0063504,2.13100099,93.8356,217.3199,231.445
26566,COSMOS 2374 (GLONASS),NSO,15050.80829429,1 26566U 00063C   15050.80829429  .00000032  00000-0  00000+0 0  3401\,2 26566 064.7999 093.7271 0063481 217.3617 141.0393 02.13100197111692,64.7999,0.0063481,2.13100197,93.7271,217.3617,141.0393
26566,COSMOS 2374 (GLONASS),NSO,15050.80990581,1 26566U 00063C   15050.80990581 -.00000120  00000-0  10000-3 0  3391\,2 26566 064.7995 093.7280 0063527 217.2005 142.4463 02.13099047111693,64.7995,0.0063527,2.13099047,93.728,217.2005,142.4463
26566,COSMOS 2374 (GLONASS),NSO,15053.23000753,1 26566U 00063C   15053.23000753  .00000005  00000-0  00000+0 0  3413\,2 26566 064.8010 093.6443 0063463 217.3618 198.8758 02.13100272111743,64.801,0.0063463,2.13100272,93.6443,217.3618,198.8758
26566,COSMOS 2374 (GLONASS),NSO,15058.41941183,1 26566U 00063C   15058.41941183  .00000008  00000-0  00000+0 0  3423\,2 26566 064.8031 093.4671 0063553 217.3255 220.0114 02.13100186111854,64.8031,0.0063553,2.13100186,93.4671,217.3255,220.0114
